HIMAWARI-8              
1 40267U 14060A   24271.71785510 -.00000291  00000+0  00000+0 0  9991
2 40267   0.0255 155.9114 0000725  35.7243 214.4583  1.00271983 36464
